0 COSMOS 2475 (GLONASS)
1 37869U 11064C   13281.72114882  .00000033  00000-0  00000+0 0  5613
2 37869 064.5915 229.9438 0023808 283.0446 333.5836 02.13102342 15016
0 COSMOS 2475 (GLONASS)
1 37869U 11064C   13283.00726649  .00000028  00000-0  00000+0 0  5621
2 37869 064.5912 229.9000 0023790 283.0555 240.2405 02.13102353 15040
0 COSMOS 2475 (GLONASS)
1 37869U 11064C   13284.07190192  .00000018  00000-0  00000+0 0  5637
2 37869 064.5910 229.8637 0023732 283.1353 336.9135 02.13102344 15061
0 COSMOS 2475 (GLONASS)
1 37869U 11064C   13286.22599025 -.00000012  00000-0  00000+0 0  5651
2 37869 064.5906 229.7902 0023649 283.2824 189.3123 02.13102343 15113
0 COSMOS 2475 (GLONASS)
1 37869U 11064C   13287.58084003 -.00000030  00000-0  00000+0 0  5667
2 37869 064.5903 229.7441 0023612 283.3598 148.6303 02.13102332 15146
0 COSMOS 2475 (GLONASS)
1 37869U 11064C   13288.66060700 -.00000038  00000-0  00000+0 0  5674
2 37869 064.5900 229.7074 0023564 283.4196 256.9316 02.13102317 15168
0 COSMOS 2475 (GLONASS)
1 37869U 11064C   13289.69954514 -.00000040  00000-0  00000+0 0  5687
2 37869 064.5896 229.6720 0023516 283.4331 333.9571 02.13102314 15185
0 COSMOS 2475 (GLONASS)
1 37869U 11064C   13291.10711122 -.00000032  00000-0  00000+0 0  5694
2 37869 064.5893 229.6241 0023467 283.4939 333.7344 02.13102306 15210
0 COSMOS 2475 (GLONASS)
1 37869U 11064C   13292.43244277 -.00000020  00000-0  00000+0 0  5702
2 37869 064.5890 229.5789 0023433 283.5515 270.4272 02.13102297 15246
0 COSMOS 2475 (GLONASS)
1 37869U 11064C   13293.47293479 -.00000010  00000-0  00000+0 0  5715
2 37869 064.5889 229.5435 0023406 283.6582 348.5507 02.13102280 15269
0 COSMOS 2475 (GLONASS)
1 37869U 11064C   13295.05846486 -.00000000  00000-0  00000+0 0  5723
2 37869 064.5885 229.4895 0023376 283.7098 124.8654 02.13102278 15303
